OBJECT_NAME,OBJECT_ID,EPOCH,MEAN_MOTION,ECCENTRICITY,INCLINATION,RA_OF_ASC_NODE,ARG_OF_PERICENTER,MEAN_ANOMALY,EPHEMERIS_TYPE,CLASSIFICATION_TYPE,NORAD_CAT_ID,ELEMENT_SET_NO,REV_AT_EPOCH,BSTAR,MEAN_MOTION_DOT,MEAN_MOTION_DDOT
STARLINK-35944,2025-286D,2026-06-07T21:30:45.087552,15.34344607,.00013473,53.1598,299.0396,97.1193,262.9963,0,U,66928,999,2923,.69341492E-3,.23083E-3,0
STARLINK-36169,2025-286E,2026-06-07T17:07:23.631744,15.34372984,.00012107,53.1609,299.3231,94.7763,265.3377,0,U,66929,999,2921,.9008462E-3,.30157E-3,0
STARLINK-36206,2025-286F,2026-06-07T16:37:13.769472,15.34388165,.00010723,53.1585,299.8984,84.5362,275.5762,0,U,66930,999,2919,.92207207E-3,.30894E-3,0
STARLINK-36130,2025-286G,2026-06-08T15:21:45.130752,15.34407479,.0001321,53.1602,295.1554,80.8216,279.2936,0,U,66931,999,2935,.85678E-3,.28689E-3,0
STARLINK-36177,2025-286H,2026-06-08T15:27:48.434112,15.34404241,.0001319,53.1606,295.1786,87.1674,272.9479,0,U,66932,999,2935,.86073E-3,.2882E-3,0
STARLINK-36157,2025-286J,2026-06-07T16:25:06.391200,15.34372555,.00013873,53.1607,299.8466,96.5117,263.6044,0,U,66933,999,2920,.9392177E-3,.31462E-3,0
STARLINK-36153,2025-286K,2026-06-07T16:31:09.892416,15.34390690,.0001356,53.1584,299.8710,45.6649,314.4465,0,U,66934,999,2920,.83092189E-3,.27794E-3,0
STARLINK-36127,2025-286L,2026-06-07T17:10:25.459680,15.34368771,.00012259,53.1611,299.3388,90.1173,269.9970,0,U,66935,999,2921,.84062763E-3,.28104E-3,0
STARLINK-36160,2025-286M,2026-06-08T15:15:40.872672,15.34411758,.000152,53.1609,295.1274,68.8403,291.2762,0,U,66936,999,2934,.75374E-3,.25185E-3,0
STARLINK-36165,2025-286N,2026-06-08T15:36:53.515296,15.34408540,.0001156,53.1604,295.2150,83.9736,276.1398,0,U,66937,999,2935,.10002E-2,.33576E-3,0
STARLINK-36155,2025-286P,2026-06-08T15:24:46.646784,15.34404409,.0001353,53.1611,295.1608,90.6299,269.4859,0,U,66938,999,2935,.90452E-3,.30312E-3,0
STARLINK-36154,2025-286Q,2026-06-08T02:42:17.751744,15.34390190,.00008346,53.1609,297.5486,63.8587,296.2502,0,U,66939,999,2927,.10067689E-2,.33782E-3,0
STARLINK-36121,2025-286R,2026-06-08T15:30:50.003712,15.34418606,.0001424,53.1607,295.1886,52.9890,307.1243,0,U,66940,999,2935,.10693E-2,.35945E-3,0
STARLINK-36088,2025-286S,2026-06-08T02:15:01.440288,15.34376716,.00015854,53.1607,297.4254,97.9968,262.1215,0,U,66941,999,2927,.79640894E-3,.26607E-3,0
STARLINK-36100,2025-286T,2026-06-07T21:03:27.817920,15.34383238,.00010508,53.1595,298.9182,82.1248,277.9874,0,U,66942,999,2916,.10355299E-2,.34754E-3,0
STARLINK-36109,2025-286U,2026-06-08T02:39:15.755328,15.34388657,.00014397,53.1611,297.5320,75.7684,284.3478,0,U,66943,999,2920,.10273139E-2,.3448E-3,0
STARLINK-36112,2025-286V,2026-06-07T17:04:21.838368,15.34362333,.00013362,53.1622,299.3087,61.3976,298.7161,0,U,66944,999,2921,.76623053E-3,.25569E-3,0
STARLINK-36110,2025-286W,2026-06-08T15:45:58.765824,15.34417929,.0001328,53.1599,295.2549,73.9781,286.1368,0,U,66945,999,2935,.10176E-2,.34181E-3,0
STARLINK-36115,2025-286X,2026-06-08T15:33:49.800384,15.34374871,.0001099,53.1603,295.1989,81.8400,278.2727,0,U,66946,999,2935,-.69581E-3,-.23792E-3,0
STARLINK-36089,2025-286Y,2026-06-08T20:36:26.840736,15.34391317,.0001203,53.1586,294.3751,84.3559,275.7580,0,U,66947,999,2938,.99194E-3,.33277E-3,0
STARLINK-36116,2025-286Z,2026-06-08T02:09:03.878208,15.34456794,.0000968,53.1601,298.1078,73.2027,286.9082,0,U,66948,999,2925,.16837745E-2,.57049E-3,0
STARLINK-36096,2025-286AA,2026-06-08T19:32:49.668000,15.34422836,.0001224,53.1593,294.1030,94.5752,265.5390,0,U,66949,999,2938,.75031E-3,.25077E-3,0
STARLINK-36111,2025-286AB,2026-06-08T02:18:03.117024,15.34387524,.00015378,53.1600,297.4348,80.5842,279.5335,0,U,66950,999,2927,.87976958E-3,.29453E-3,0
STARLINK-35999,2025-286AC,2026-06-08T15:42:57.255840,15.34409082,.0001053,53.1595,295.2347,80.3616,279.7505,0,U,66951,999,2935,.82053E-3,.27456E-3,0
STARLINK-36122,2025-286AD,2026-06-07T17:25:33.804480,15.34368659,.00011943,53.1609,299.3976,84.6912,275.4227,0,U,66952,999,2921,.12152369E-2,.40865E-3,0
STARLINK-35887,2025-288A,2026-06-08T11:28:56.008992,15.27579824,.0001417,42.9980,230.6209,258.4591,101.6101,0,U,66959,999,2917,.21643E-3,.5698E-4,0
STARLINK-35879,2025-288B,2026-06-08T11:49:17.427648,15.27582320,.0001477,42.9977,230.7246,287.1611,72.9079,0,U,66960,999,2917,.4341E-3,.11703E-3,0
STARLINK-35761,2025-288C,2026-06-07T22:26:04.550496,15.27577737,.00018339,43.0047,233.4241,294.3709,65.6951,0,U,66961,999,2909,.66722498E-3,.18142E-3,0
STARLINK-35874,2025-288D,2026-06-07T22:20:43.812960,15.27595840,.00030915,43.0028,234.2523,266.6002,93.4497,0,U,66962,999,2908,.59602428E-3,.16184E-3,0
