STARLINK-35944          
1 66928U 25286D   26158.89635518  .00023083  00000+0  69341-3 0  9992
2 66928  53.1598 299.0396 0001347  97.1193 262.9963 15.34344607 29237
STARLINK-36169          
1 66929U 25286E   26158.71346796  .00030157  00000+0  90085-3 0  9990
2 66929  53.1609 299.3231 0001210  94.7763 265.3377 15.34372984 29210
STARLINK-36206          
1 66930U 25286F   26158.69252048  .00030894  00000+0  92207-3 0  9991
2 66930  53.1585 299.8984 0001072  84.5362 275.5762 15.34388165 29199
STARLINK-36130          
1 66931U 25286G   26159.64010568  .00028689  00000+0  85678-3 0  9990
2 66931  53.1602 295.1554 0001321  80.8216 279.2936 15.34407479 29358
STARLINK-36177          
1 66932U 25286H   26159.64431058  .00028820  00000+0  86073-3 0  9999
2 66932  53.1606 295.1786 0001319  87.1674 272.9479 15.34404241 29351
STARLINK-36157          
1 66933U 25286J   26158.68410175  .00031462  00000+0  93922-3 0  9997
2 66933  53.1607 299.8466 0001387  96.5117 263.6044 15.34372555 29201
STARLINK-36153          
1 66934U 25286K   26158.68830894  .00027794  00000+0  83092-3 0  9992
2 66934  53.1584 299.8710 0001356  45.6649 314.4465 15.34390690 29201
STARLINK-36127          
1 66935U 25286L   26158.71557245  .00028104  00000+0  84063-3 0  9998
2 66935  53.1611 299.3388 0001225  90.1173 269.9970 15.34368771 29212
STARLINK-36160          
1 66936U 25286M   26159.63588973  .00025185  00000+0  75374-3 0  9994
2 66936  53.1609 295.1274 0001520  68.8403 291.2762 15.34411758 29349
STARLINK-36165          
1 66937U 25286N   26159.65061939  .00033576  00000+0  10002-2 0  9994
2 66937  53.1604 295.2150 0001156  83.9736 276.1398 15.34408540 29354
STARLINK-36155          
1 66938U 25286P   26159.64220656  .00030312  00000+0  90452-3 0  9990
2 66938  53.1611 295.1608 0001353  90.6299 269.4859 15.34404409 29355
STARLINK-36154          
1 66939U 25286Q   26159.11270546  .00033782  00000+0  10068-2 0  9994
2 66939  53.1609 297.5486 0000834  63.8587 296.2502 15.34390190 29273
STARLINK-36121          
1 66940U 25286R   26159.64641208  .00035945  00000+0  10693-2 0  9998
2 66940  53.1607 295.1886 0001424  52.9890 307.1243 15.34418606 29359
STARLINK-36088          
1 66941U 25286S   26159.09376667  .00026607  00000+0  79641-3 0  9996
2 66941  53.1607 297.4254 0001585  97.9968 262.1215 15.34376716 29272
STARLINK-36100          
1 66942U 25286T   26158.87740530  .00034754  00000+0  10355-2 0  9994
2 66942  53.1595 298.9182 0001050  82.1248 277.9874 15.34383238 29169
STARLINK-36109          
1 66943U 25286U   26159.11059902  .00034480  00000+0  10273-2 0  9994
2 66943  53.1611 297.5320 0001439  75.7684 284.3478 15.34388657 29208
STARLINK-36112          
1 66944U 25286V   26158.71136387  .00025569  00000+0  76623-3 0  9993
2 66944  53.1622 299.3087 0001336  61.3976 298.7161 15.34362333 29214
STARLINK-36110          
1 66945U 25286W   26159.65693016  .00034181  00000+0  10176-2 0  9995
2 66945  53.1599 295.2549 0001328  73.9781 286.1368 15.34417929 29357
STARLINK-36115          
1 66946U 25286X   26159.64849306 -.00023792  00000+0 -69581-3 0  9993
2 66946  53.1603 295.1989 0001099  81.8400 278.2727 15.34374871 29351
STARLINK-36089          
1 66947U 25286Y   26159.85864399  .00033277  00000+0  99194-3 0  9996
2 66947  53.1586 294.3751 0001203  84.3559 275.7580 15.34391317 29386
STARLINK-36116          
1 66948U 25286Z   26159.08962822  .00057049  00000+0  16838-2 0  9998
2 66948  53.1601 298.1078 0000968  73.2027 286.9082 15.34456794 29251
STARLINK-36096          
1 66949U 25286AA  26159.81446375  .00025077  00000+0  75031-3 0  9997
2 66949  53.1593 294.1030 0001224  94.5752 265.5390 15.34422836 29382
STARLINK-36111          
1 66950U 25286AB  26159.09586941  .00029453  00000+0  87977-3 0  9997
2 66950  53.1600 297.4348 0001537  80.5842 279.5335 15.34387524 29279
STARLINK-35999          
1 66951U 25286AC  26159.65482935  .00027456  00000+0  82053-3 0  9999
2 66951  53.1595 295.2347 0001053  80.3616 279.7505 15.34409082 29352
STARLINK-36122          
1 66952U 25286AD  26158.72608570  .00040865  00000+0  12152-2 0  9993
2 66952  53.1609 299.3976 0001194  84.6912 275.4227 15.34368659 29217
STARLINK-35887          
1 66959U 25288A   26159.47842604  .00005698  00000+0  21643-3 0  9994
2 66959  42.9980 230.6209 0001417 258.4591 101.6101 15.27579824 29177
STARLINK-35879          
1 66960U 25288B   26159.49256283  .00011703  00000+0  43410-3 0  9990
2 66960  42.9977 230.7246 0001477 287.1611  72.9079 15.27582320 29174
STARLINK-35761          
1 66961U 25288C   26158.93477489  .00018142  00000+0  66722-3 0  9997
2 66961  43.0047 233.4241 0001833 294.3709  65.6951 15.27577737 29099
STARLINK-35874          
1 66962U 25288D   26158.93106265  .00016184  00000+0  59602-3 0  9992
2 66962  43.0028 234.2523 0003091 266.6002  93.4497 15.27595840 29085
